{"type": "FeatureCollection", "features": [{"type": "Feature", "properties": {"id": "RCAA", "oceanic": "0", "label_lon": "121.39", "label_lat": "23.67", "region": "APAC", "division": "VATROC"}, "geometry": {"type": "MultiPolygon", "coordinates": [[[[117.5, 21.0], [117.5, 23.0], [118.066667, 23.450833], [118.735556, 24.001389], [119.605, 24.690833], [120.0, 25.0], [120.586208, 25.586208], [121.448889, 26.485556], [122.09, 27.132778], [124.0, 29.0], [124.0, 23.3], [121.3, 21.0], [117.5, 21.0]]]]}}]}